{
    "type": "FeatureCollection",
    "name": "Coberturas",
    "crs": { "type": "name", "properties": { "name": "urn:ogc:def:crs:OGC:1.3:CRS84" } },
    "features": [
    {
      "type": "Feature",
      "properties": {
        "nombre": "Cobertura Senkata",
        "descripcion": "Senkata, Río Seco, Aeropuerto Internacional de El Alto"
      },
      "geometry": {
        "type": "Polygon",
        "coordinates": [ [ [ -68.261621605058849, -16.489515234613506 ], [ -68.258982633384633, -16.478795733045459 ], [ -68.255202856247109, -16.469209184456403 ], [ -68.254249894253647, -16.466713616466766 ], [ -68.244353750475383, -16.456028004369834 ], [ -68.228300006123973, -16.468119574215631 ], [ -68.22974777530635, -16.470474530596814 ], [ -68.222600560355374, -16.474727439013904 ], [ -68.227878503703764, -16.483654728191762 ], [ -68.227310391746144, -16.485781049379195 ], [ -68.228721508544155, -16.4876789031117 ], [ -68.23031588726397, -16.498204624410715 ], [ -68.230535801570142, -16.513104833167834 ], [ -68.23955228812369, -16.512331737374968 ], [ -68.261621605058849, -16.489515234613506 ] ] ]
      }
    },
    {
      "type": "Feature",
      "properties": {
        "nombre": "Cobertura Villa Adela",
        "descripcion": "Distritos 4-5, Villa Adela, Cruce a La Paz"
      },
      "geometry": {
        "type": "Polygon",
        "coordinates": [ [ [ -68.22260052447713, -16.474727414756966 ], [ -68.214631004406613, -16.461800724444213 ], [ -68.207390538610781, -16.46790264229568 ], [ -68.196012663788736, -16.464475973155256 ], [ -68.182472052430271, -16.476919903164127 ], [ -68.198888476501992, -16.502714464941334 ], [ -68.206700970439684, -16.510535556146788 ], [ -68.212711183930352, -16.510347733456893 ], [ -68.216221712801072, -16.511745129897374 ], [ -68.230498908342227, -16.511369486685798 ], [ -68.23025599228194, -16.498304161644988 ], [ -68.228657447885467, -16.487664924238675 ], [ -68.227372343566728, -16.485801494788731 ], [ -68.227779815667787, -16.483577378095724 ], [ -68.22260052447713, -16.474727414756966 ] ] ]
      }
    },
    {
      "type": "Feature",
      "properties": {
        "nombre": "Cobertura El Alto Centro",
        "descripcion": "Distrito 3, Ceja, zona 16 de Julio"
      },
      "geometry": {
        "type": "Polygon",
        "coordinates": [ [ [ -68.195926467767251, -16.529594853408085 ], [ -68.214051140262683, -16.513450540896603 ], [ -68.226165599267418, -16.513044849776321 ], [ -68.226087239247974, -16.512564029568043 ], [ -68.230459728332477, -16.512413773007644 ], [ -68.230530252349979, -16.513112465022168 ], [ -68.239408442551976, -16.51237620884929 ], [ -68.239157690489805, -16.525538242909107 ], [ -68.236650169867858, -16.543687156229907 ], [ -68.240348762785217, -16.545970673422506 ], [ -68.233202329012684, -16.554804024776345 ], [ -68.195926467767251, -16.529594853408085 ] ] ]
      }
    },
    {
      "type": "Feature",
      "properties": {
        "nombre": "Cobertura Villa Fátima",
        "descripcion": "Distritos 2 y 12, Villa Fátima, Miraflores alto"
      },
      "geometry": {
        "type": "Polygon",
        "coordinates": [ [ [ -68.205295693684675, -16.535877032036058 ], [ -68.197835819834452, -16.542517453513046 ], [ -68.194576043025947, -16.546784029050304 ], [ -68.185674344818068, -16.552072048011432 ], [ -68.178527911045535, -16.554716003102588 ], [ -68.184295208476001, -16.565952407580234 ], [ -68.210702535025746, -16.588648545731079 ], [ -68.222989386073209, -16.568716342472676 ], [ -68.233195778604681, -16.554804259500738 ], [ -68.205295693684675, -16.535877032036058 ] ] ]
      }
    },
    {
      "type": "Feature",
      "properties": {
        "nombre": "Cobertura Obrajes",
        "descripcion": "Obrajes, Alto Obrajes, Bella Vista"
      },
      "geometry": {
        "type": "Polygon",
        "coordinates": [ [ [ -68.19639399547674, -16.576350755408118 ], [ -68.192240914446629, -16.578998132381759 ], [ -68.18509448067411, -16.579719113844128 ], [ -68.185282544720749, -16.574732270132007 ], [ -68.169046348693726, -16.593237016021373 ], [ -68.167165708227259, -16.597502467936678 ], [ -68.167228396242777, -16.616125163000344 ], [ -68.195782787325072, -16.626096573433404 ], [ -68.216830288545438, -16.594123156425447 ], [ -68.19639399547674, -16.576350755408118 ] ] ]
      }
    },
    {
      "type": "Feature",
      "properties": {
        "nombre": "Cobertura Central",
        "descripcion": "Distrito 3, Centro, Sopocachi bajo"
      },
      "geometry": {
        "type": "Polygon",
        "coordinates": [ [ [ -68.169532180814173, -16.511529369916918 ], [ -68.162354403033859, -16.503678266235333 ], [ -68.16030137052465, -16.504737620362217 ], [ -68.157386377801643, -16.50678118072107 ], [ -68.153750472899816, -16.51104854593855 ], [ -68.146478663096232, -16.526554516352736 ], [ -68.150490696091325, -16.535028183406023 ], [ -68.152622088619964, -16.535088279007056 ], [ -68.153374344806537, -16.54049680646343 ], [ -68.176216290471999, -16.555549742783533 ], [ -68.185588801796641, -16.55212087137442 ], [ -68.194542740017454, -16.546802807783294 ], [ -68.197818188829885, -16.542511193796496 ], [ -68.205249330673013, -16.53590833169293 ], [ -68.195921876359549, -16.529605730393406 ], [ -68.212236432406016, -16.515046611025145 ], [ -68.191267291205065, -16.515657645317738 ], [ -68.19489274810428, -16.519634329486728 ], [ -68.192427019492698, -16.521757865340039 ], [ -68.188352298482087, -16.517430635524338 ], [ -68.183347705240791, -16.517540820819438 ], [ -68.183326809235624, -16.515948136352979 ], [ -68.167017477190441, -16.516208576220183 ], [ -68.165617444843193, -16.511901256392385 ], [ -68.169517161810433, -16.511535630637926 ], [ -68.169532180814173, -16.511529369916918 ] ] ]
      }
    },
    {
      "type": "Feature",
      "properties": {
        "nombre": "Cobertura Sopocachi",
        "descripcion": "Distrito 6, Sopocachi, San Jorge"
      },
      "geometry": {
        "type": "Polygon",
        "coordinates": [ [ [ -68.16508720871164, -16.506236483839604 ], [ -68.17240081052563, -16.50074685536168 ], [ -68.18426974146945, -16.497501089314476 ], [ -68.186296653972178, -16.504132812511248 ], [ -68.194822224086764, -16.502770422679248 ], [ -68.195490896252608, -16.503311372732021 ], [ -68.198889109095461, -16.502717830232292 ], [ -68.182466155022126, -16.476923268903612 ], [ -68.173410348776045, -16.467442609847851 ], [ -68.167893803407779, -16.469085790325956 ], [ -68.168186347480358, -16.482310881875204 ], [ -68.171738668361428, -16.488041474441001 ], [ -68.161666793863319, -16.502908164734428 ], [ -68.16508720871164, -16.506236483839604 ] ] ]
      }
    },
    {
      "type": "Feature",
      "properties": {
        "nombre": "Cobertura Miraflores",
        "descripcion": "Zona Norte, Miraflores, Villa Fátima baja"
      },
      "geometry": {
        "type": "Polygon",
        "coordinates": [ [ [ -68.171686428348465, -16.488021437699569 ], [ -68.164926570671852, -16.477361597269987 ], [ -68.16175037788409, -16.483613304170127 ], [ -68.158239849013384, -16.483773601693297 ], [ -68.152974055707304, -16.488582465675705 ], [ -68.146057477991832, -16.477131161909593 ], [ -68.129340673845562, -16.496045986701827 ], [ -68.153287495785065, -16.511953846341278 ], [ -68.153705415888723, -16.511012233662459 ], [ -68.161666793863375, -16.502818006309408 ], [ -68.171686428348465, -16.488021437699569 ] ] ]
      }
    },
    {
      "type": "Feature",
      "properties": {
        "nombre": "Cobertura Calacoto",
        "descripcion": "Zona Central, Calacoto, San Miguel"
      },
      "geometry": {
        "type": "Polygon",
        "coordinates": [ [ [ -68.153279659783166, -16.511966367755573 ], [ -68.120506887654614, -16.490513491502213 ], [ -68.089580799984049, -16.499008774452413 ], [ -68.099109378347421, -16.530742567611409 ], [ -68.118835207239997, -16.515357136890724 ], [ -68.129366793852114, -16.519043341299842 ], [ -68.143241741293494, -16.515036594053459 ], [ -68.149928462951976, -16.518081729538508 ], [ -68.153279659783166, -16.511966367755573 ] ] ]
      }
    },
    {
      "type": "Feature",
      "properties": {
        "nombre": "Cobertura Achumani",
        "descripcion": "Zona Sur, Achumani, Cota Cota"
      },
      "geometry": {
        "type": "Polygon",
        "coordinates": [ [ [ -68.150079958989565, -16.518287074118611 ], [ -68.143267861299975, -16.515041602539373 ], [ -68.129518289889702, -16.519128483777219 ], [ -68.118819535236099, -16.515402213184572 ], [ -68.099177290364295, -16.531148221561971 ], [ -68.089481543959479, -16.499093925754142 ], [ -68.047856701635325, -16.525378840791102 ], [ -68.058388288247471, -16.552621623101551 ], [ -68.094830921286274, -16.551660178636705 ], [ -68.101684810986214, -16.543327459119766 ], [ -68.105362507898391, -16.544128697795443 ], [ -68.106532684188636, -16.539962220339401 ], [ -68.115726926469051, -16.539000712763055 ], [ -68.138628948149403, -16.539801969409432 ], [ -68.146318678056687, -16.526340416224432 ], [ -68.150079958989565, -16.518287074118611 ] ] ]
      }
    }
    ]
    }